[{"OBJECT_NAME":"SKYKRAFT-1C","OBJECT_ID":"2023-001BE","EPOCH":"2026-03-09T17:01:49.738944","MEAN_MOTION":15.24327539,"ECCENTRICITY":0.00119736,"INCLINATION":97.3326,"RA_OF_ASC_NODE":124.5476,"ARG_OF_PERICENTER":132.0782,"MEAN_ANOMALY":228.1477,"EPHEMERIS_TYPE":0,"CLASSIFICATION_TYPE":"U","NORAD_CAT_ID":55061,"ELEMENT_SET_NO":999,"REV_AT_EPOCH":17632,"BSTAR":0.00018809338,"MEAN_MOTION_DOT":4.538e-5,"MEAN_MOTION_DDOT":0},{"OBJECT_NAME":"STARLINK-31156","OBJECT_ID":"2024-005R","EPOCH":"2026-03-09T11:01:41.050560","MEAN_MOTION":15.26738284,"ECCENTRICITY":0.00010028,"INCLINATION":42.999,"RA_OF_ASC_NODE":220.6172,"ARG_OF_PERICENTER":291.5066,"MEAN_ANOMALY":68.5679,"EPHEMERIS_TYPE":0,"CLASSIFICATION_TYPE":"U","NORAD_CAT_ID":58743,"ELEMENT_SET_NO":999,"REV_AT_EPOCH":12046,"BSTAR":1.6221171e-5,"MEAN_MOTION_DOT":1.76e-6,"MEAN_MOTION_DDOT":0}]
